{"type":"FeatureCollection","crs":{"type":"name","properties":{"name":"urn:ogc:def:crs:OGC:1.3:CRS84"}},"features":[{"type":"Feature","properties":{"shapeName":"Jongphyong","shapeISO":"","shapeID":"82179303B98077140175950","shapeGroup":"PRK","shapeType":"ADM2"},"geometry":{"type":"Polygon","coordinates":[[[127.10527801500007,39.86671447800006],[127.09609985400004,39.85332489000007],[127.08548736600005,39.84793090800008],[127.09008789100005,39.84098434400005],[127.10601806600005,39.82698822000003],[127.11565399200003,39.82137298600003],[127.1219406130001,39.81299209600007],[127.14145660400004,39.810100555000076],[127.14122772200005,39.80175781200006],[127.1473541260001,39.78781509400005],[127.1635208130001,39.78216171300005],[127.17283630400004,39.76541900600006],[127.17546081500006,39.743156433000024],[127.17506408700001,39.72925186200007],[127.18103790300006,39.70975112900004],[127.19362640400004,39.69299316400003],[127.17339325000012,39.67085647600004],[127.15977478000002,39.65146637000004],[127.16233062700007,39.62642288200004],[127.17428588900009,39.59928512600004],[127.17793273900008,39.60130310100004],[127.194107056,39.59564971900005],[127.20389556900011,39.59559249900008],[127.21688079800003,39.592735291000054],[127.2398986820001,39.59816741900005],[127.25606536900011,39.59251022300003],[127.2719955440001,39.578514099000074],[127.29157257100007,39.57840347300004],[127.30113220200008,39.57000351000005],[127.31347656200012,39.544902802000024],[127.32303619400011,39.53650665300006],[127.33921051000004,39.53085327100007],[127.38149261500007,39.525047302000075],[127.404350281,39.52491760300006],[127.4243392940001,39.53870773300008],[127.44090271000005,39.546955109000066],[127.54038269000011,39.546389797000074],[127.54782844200008,39.55226285900005],[127.54997303000005,39.55882759200006],[127.55982831500012,39.56581796800003],[127.5697163420001,39.56822449100008],[127.56443836200003,39.57413111400007],[127.5667892240001,39.579091498000025],[127.57441806600002,39.58340359500005],[127.5754396100001,39.585662780000064],[127.569732713,39.58929057200004],[127.55747090500006,39.60276382700005],[127.55742506600006,39.607341132000045],[127.56390467100005,39.616967224000064],[127.56343973700007,39.619275522000066],[127.54997957900002,39.62201928600007],[127.54371607000007,39.62658676800004],[127.54026180900007,39.63334140400008],[127.53357593200008,39.63689389000007],[127.51228393300005,39.63117717000006],[127.50418033500011,39.63325954900006],[127.49694112000009,39.641422082000076],[127.49815256700003,39.642322482000054],[127.49388958400004,39.645671969000034],[127.48802880000005,39.662812307000024],[127.48816631500006,39.686615603000064],[127.49035019400003,39.699136071000055],[127.49943810100001,39.71590353200003],[127.465591431,39.72481155400004],[127.42736816400009,39.75840377800006],[127.40554046600005,39.79468536400003],[127.38642883300008,39.81148147600004],[127.34135437000009,39.83398819000007],[127.29604339600007,39.84815216100003],[127.26673889200003,39.85110092200006],[127.24714660600011,39.85121154800004],[127.2142486570001,39.843055725000056],[127.2011947630001,39.84313201900005],[127.18828582800006,39.84876632700008],[127.17872619600007,39.85716247600004],[127.16264343300008,39.86560058600003],[127.12998962400002,39.86578750600006],[127.1170043950001,39.86864471400003],[127.10527801500007,39.86671447800006]]]}},{"type":"Feature","properties":{"shapeName":"Kujang","shapeISO":"","shapeID":"82179303B72462969749210","shapeGroup":"PRK","shapeType":"ADM2"},"geometry":{"type":"Polygon","coordinates":[[[126.00272369400011,40.08324432400008],[125.9962463380001,40.07529068000008],[125.98923492400002,40.05864334100005],[125.98238372800006,40.04756164600008],[125.97179412800006,40.01980972300004],[125.95841980000012,40.008758545000035],[125.94543457000009,40.01161575300006],[125.93563842800006,40.01167297400008],[125.88896942100007,39.97856521600005],[125.86611175500002,39.97869491600005],[125.86898040800008,39.964771271000075],[125.86196899400011,39.94812774700006],[125.86139679000007,39.92755508400006],[125.86467742900004,39.92864227300004],[125.87400054900002,39.91190338100006],[125.87368011500007,39.900779724000074],[125.89557647700008,39.86727905300006],[125.92735290500002,39.83650589000007],[125.9334106450001,39.81978225700004],[125.94304657000009,39.81416702300004],[125.935958862,39.79473877000004],[125.94095611600005,39.78398895300006],[125.95776367200006,39.791938782000045],[125.96164703400007,39.80971527100007],[125.97083282500012,39.820831299000076],[125.97747802700007,39.82555389400005],[125.98387146000005,39.82721710200008],[125.99220275900007,39.82666015600006],[125.99942016600005,39.82943725600006],[126.00193786600005,39.834716797000056],[126.00388336200001,39.84721374500003],[126.01053619400011,39.85804748500004],[126.01609802200005,39.86360931400003],[126.03498840300006,39.851387024000076],[126.05664062500011,39.832214355000076],[126.07138061500007,39.824996948000035],[126.08442688000002,39.820831299000076],[126.092208862,39.819442749000075],[126.10748291000004,39.820549011000026],[126.13796234100005,39.82925796500007],[126.16499328600003,39.83305358900003],[126.19831848100011,39.84137725800008],[126.24304199200003,39.84665679900007],[126.25694274900002,39.84971618700007],[126.27110290500002,39.85416412400008],[126.29721069300001,39.87082672100007],[126.31804657000009,39.87971496600005],[126.35386657700008,39.88526916500007],[126.36164856000005,39.888885498000036],[126.36720275900007,39.893882751000035],[126.37109375000011,39.904708862000064],[126.36943054200003,39.92304992700008],[126.34221649200003,39.959213257000044],[126.32579040500002,39.95103454600007],[126.28334045400004,39.95127868700007],[126.25420379600007,39.95979309100005],[126.21755981400008,39.93496704100005],[126.19796752900004,39.935081482000044],[126.17853546100002,39.940757751000035],[126.1588668820001,39.93808364900008],[126.13624572800006,39.94655990600006],[126.12374115000011,39.96609878500004],[126.1308288570001,39.985523224000076],[126.14079284700006,39.99103164700006],[126.15106201200001,40.007659912000065],[126.14811706500006,40.01879882800006],[126.11251831100003,40.03012847900004],[126.0896606450001,40.03025817900004],[126.0767593380001,40.03589630100004],[126.06441497800006,40.06099700900006],[126.0452270510001,40.07501220700004],[126.02252960200008,40.08070373500004],[126.00272369400011,40.08324432400008]]]}},{"type":"Feature","properties":{"shapeName":"Ryonggang","shapeISO":"","shapeID":"82179303B96536489392823","shapeGroup":"PRK","shapeType":"ADM2"},"geometry":{"type":"Polygon","coordinates":[[[125.60358429000007,38.73306274400005],[125.58888244600007,38.73999023400006],[125.57998657200005,38.74721527100007],[125.5738830570001,38.76166534400005],[125.57514953600003,38.78044891400003],[125.57248687700007,38.79666137700008],[125.56873321500007,38.80089569100005],[125.5644226070001,38.80443573000008],[125.54891204800003,38.80715179400005],[125.54467773400006,38.80140686000004],[125.53731536900011,38.79792022700008],[125.51926422100007,38.79808425900006],[125.4977874760001,38.802947998000036],[125.488128662,38.81373214700005],[125.4817504880001,38.82720184300007],[125.48187255900007,38.83796310400004],[125.48867797900004,38.84629821800007],[125.49821472200006,38.85022735600006],[125.51131439200003,38.85174179100005],[125.52185058600003,38.84864807100007],[125.5269317630001,38.85832977300004],[125.53634643600003,38.86427688600003],[125.5115356450001,38.87019348100006],[125.44016265900007,38.89725112900004],[125.43376159700006,38.908027649000076],[125.42410278300008,38.918811798000036],[125.41436004600007,38.92152404800004],[125.39155578600003,38.92156982400007],[125.36879730200008,38.925659180000025],[125.36869812000009,38.916236877000074],[125.33263397200005,38.894783020000034],[125.29647827100007,38.865257263000046],[125.29308319100005,38.85181045500008],[125.29613494900002,38.832969666000054],[125.29598999000007,38.81951141400003],[125.2925567630001,38.80337524400005],[125.29540252700008,38.79107284500003],[125.30995941200001,38.79525756800007],[125.34136962900004,38.797893524000074],[125.37400054900002,38.80320358300003],[125.39037323000002,38.81124496500007],[125.39679718000002,38.80316162100007],[125.40650939900002,38.797756195000034],[125.42265319800003,38.78426742600004],[125.44877624500009,38.78959655800003],[125.4618606570001,38.794952393000074],[125.47489929200003,38.79492569000007],[125.50738525400004,38.78678512600004],[125.5234603880001,38.76791381800007],[125.53314971900011,38.75981903100006],[125.5427856450001,38.74634933500005],[125.57846832300004,38.73281478900003],[125.58493042000009,38.72742462200006],[125.59778595000012,38.71125030500008],[125.6169281010001,38.70061111500007],[125.61971283000003,38.70860290500008],[125.61804199200003,38.71972656200006],[125.60358429000007,38.73306274400005]]]}}]}
